QIANFAN-65              
1 62795U 25016L   25220.07970134  .00000137  00000+0  19368-3 0  9995
2 62795  88.9824 116.1499 0014400 358.1174   1.9920 13.50961776 30143
QIANFAN-66              
1 62796U 25016M   25220.10837705  .00000144  00000+0  20446-3 0  9993
2 62796  88.9843 116.0922 0015353 353.1309   6.9630 13.50956841 30193
QIANFAN-67              
1 62797U 25016N   25220.11259075  .00000147  00000+0  20873-3 0  9990
2 62797  88.9833 116.1298 0015579 359.7704   0.3437 13.50965575 30165
QIANFAN-68              
1 62798U 25016P   25220.04258685  .00000145  00000+0  20655-3 0  9995
2 62798  88.9837 116.1806 0016145 357.9951   2.1133 13.50962982 30138
QIANFAN-69              
1 62799U 25016Q   25220.04666059  .00000134  00000+0  18908-3 0  9990
2 62799  88.9816 116.0739 0016342 358.9020   1.2092 13.50958606 30173
QIANFAN-70              
1 62800U 25016R   25220.06318350  .00000130  00000+0  18319-3 0  9995
2 62800  88.9837 116.1837 0015574 349.7110  10.3720 13.50962352 30131
QIANFAN-71              
1 62801U 25016S   25220.05915173  .00000142  00000+0  20182-3 0  9995
2 62801  88.9831 116.1714 0016386   2.2750 357.8473 13.50962219 30139
QIANFAN-72              
1 62802U 25016T   25220.05489902  .00000136  00000+0  19181-3 0  9992
2 62802  88.9821 116.1928 0020001   7.2294 352.9142 13.50957609 30128
